

*******************************************************************************
Ephemeris / API_USER Tue Jul  7 14:26:59 2026 Pasadena, USA      / Horizons
*******************************************************************************
Target body name: Sun (10)                        {source: DE441}
Center body name: Earth (399)                     {source: DE441}
Center-site name: BODY CENTER
*******************************************************************************
Start time      : A.D. 2026-Dec-03 09:15:00.0000 UT 
Stop  time      : A.D. 2026-Dec-04 09:15:00.0000 UT 
Step-size       : 8640 steps
*******************************************************************************
Center geodetic : 0.0, 0.0, 0.0                   {E-lon(deg),Lat(deg),Alt(km)}
Center cylindric: 0.0, 0.0, 0.0                   {E-lon(deg),Dxy(km),Dz(km)}
Center radii    : 6378.137, 6378.137, 6356.752 km {Equator_a, b, pole_c}
Output units    : KM-S
Calendar mode   : Mixed Julian/Gregorian
Output type     : GEOMETRIC cartesian states
Output format   : 2 (position and velocity)
EOP file        : eop.260706.p261002
EOP coverage    : DATA-BASED 1962-JAN-20 TO 2026-JUL-06. PREDICTS-> 2026-OCT-01
Reference frame : ICRF
*******************************************************************************
JDUT 
   X     Y     Z
   VX    VY    VZ
*******************************************************************************
$$SOE
2461378.241898148 = A.D. 2026-Dec-03 17:48:20.0000 UT~ 
 X =-4.752751090666537E+07 Y =-1.280847109672207E+08 Z =-5.552206380219004E+07
 VX= 2.868567973182821E+01 VY=-8.715143687591544E+00 VZ=-3.778814324041627E+00
2461378.242013889 = A.D. 2026-Dec-03 17:48:30.0000 UT~ 
 X =-4.752722404976813E+07 Y =-1.280847981183923E+08 Z =-5.552210159021818E+07
 VX= 2.868569971655580E+01 VY=-8.715090633859067E+00 VZ=-3.778791303358506E+00
2461378.242129629 = A.D. 2026-Dec-03 17:48:40.0000 UT~ 
 X =-4.752693719267104E+07 Y =-1.280848852690333E+08 Z =-5.552213937801611E+07
 VX= 2.868571970116323E+01 VY=-8.715037580080633E+00 VZ=-3.778768282654981E+00
2461378.242245371 = A.D. 2026-Dec-03 17:48:50.0000 UT~ 
 X =-4.752665033537411E+07 Y =-1.280849724191439E+08 Z =-5.552217716558383E+07
 VX= 2.868573968565051E+01 VY=-8.714984526256238E+00 VZ=-3.778745261931055E+00
2461378.242361111 = A.D. 2026-Dec-03 17:49:00.0000 UT~ 
 X =-4.752636347787733E+07 Y =-1.280850595687239E+08 Z =-5.552221495292135E+07
 VX= 2.868575967001761E+01 VY=-8.714931472385889E+00 VZ=-3.778722241186726E+00
2461378.242476852 = A.D. 2026-Dec-03 17:49:10.0000 UT~ 
 X =-4.752607662018070E+07 Y =-1.280851467177733E+08 Z =-5.552225274002866E+07
 VX= 2.868577965426456E+01 VY=-8.714878418469580E+00 VZ=-3.778699220421995E+00
2461378.242592593 = A.D. 2026-Dec-03 17:49:20.0000 UT~ 
 X =-4.752578976228423E+07 Y =-1.280852338662923E+08 Z =-5.552229052690576E+07
 VX= 2.868579963839136E+01 VY=-8.714825364507313E+00 VZ=-3.778676199636863E+00
2461378.242708333 = A.D. 2026-Dec-03 17:49:30.0000 UT~ 
 X =-4.752550290418793E+07 Y =-1.280853210142806E+08 Z =-5.552232831355266E+07
 VX= 2.868581962239798E+01 VY=-8.714772310499091E+00 VZ=-3.778653178831328E+00
2461378.242824074 = A.D. 2026-Dec-03 17:49:40.0000 UT~ 
 X =-4.752521604589179E+07 Y =-1.280854081617385E+08 Z =-5.552236609996933E+07
 VX= 2.868583960628446E+01 VY=-8.714719256444914E+00 VZ=-3.778630158005392E+00
2461378.242939815 = A.D. 2026-Dec-03 17:49:50.0000 UT~ 
 X =-4.752492918739581E+07 Y =-1.280854953086658E+08 Z =-5.552240388615581E+07
 VX= 2.868585959005076E+01 VY=-8.714666202344779E+00 VZ=-3.778607137159054E+00
2461378.243055556 = A.D. 2026-Dec-03 17:50:00.0000 UT~ 
 X =-4.752464232870000E+07 Y =-1.280855824550625E+08 Z =-5.552244167211208E+07
 VX= 2.868587957369692E+01 VY=-8.714613148198691E+00 VZ=-3.778584116292316E+00
2461378.243171296 = A.D. 2026-Dec-03 17:50:10.0000 UT~ 
 X =-4.752435546980092E+07 Y =-1.280856696009298E+08 Z =-5.552247945783859E+07
 VX= 2.868589955722313E+01 VY=-8.714560094006011E+00 VZ=-3.778561095404901E+00
2461378.243287037 = A.D. 2026-Dec-03 17:50:20.0000 UT~ 
 X =-4.752406861070543E+07 Y =-1.280857567462654E+08 Z =-5.552251724333443E+07
 VX= 2.868591954062896E+01 VY=-8.714507039768012E+00 VZ=-3.778538074497360E+00
2461378.243402778 = A.D. 2026-Dec-03 17:50:30.0000 UT~ 
 X =-4.752378175141010E+07 Y =-1.280858438910705E+08 Z =-5.552255502860008E+07
 VX= 2.868593952391462E+01 VY=-8.714453985484058E+00 VZ=-3.778515053569418E+00
2461378.243518519 = A.D. 2026-Dec-03 17:50:40.0000 UT~ 
 X =-4.752349489191496E+07 Y =-1.280859310353451E+08 Z =-5.552259281363551E+07
 VX= 2.868595950708012E+01 VY=-8.714400931154147E+00 VZ=-3.778492032621076E+00
2461378.243634259 = A.D. 2026-Dec-03 17:50:50.0000 UT~ 
 X =-4.752320803221997E+07 Y =-1.280860181790892E+08 Z =-5.552263059844073E+07
 VX= 2.868597949012546E+01 VY=-8.714347876778284E+00 VZ=-3.778469011652332E+00
2461378.243750000 = A.D. 2026-Dec-03 17:51:00.0000 UT~ 
 X =-4.752292117232515E+07 Y =-1.280861053223027E+08 Z =-5.552266838301574E+07
 VX= 2.868599947305064E+01 VY=-8.714294822356466E+00 VZ=-3.778445990663189E+00
2461378.243865741 = A.D. 2026-Dec-03 17:51:10.0000 UT~ 
 X =-4.752263431223051E+07 Y =-1.280861924649856E+08 Z =-5.552270616736054E+07
 VX= 2.868601945585565E+01 VY=-8.714241767888694E+00 VZ=-3.778422969653645E+00
2461378.243981482 = A.D. 2026-Dec-03 17:51:20.0000 UT~ 
 X =-4.752234745193604E+07 Y =-1.280862796071380E+08 Z =-5.552274395147513E+07
 VX= 2.868603943854049E+01 VY=-8.714188713374972E+00 VZ=-3.778399948623702E+00
2461378.244097222 = A.D. 2026-Dec-03 17:51:30.0000 UT~ 
 X =-4.752206059144174E+07 Y =-1.280863667487599E+08 Z =-5.552278173535951E+07
 VX= 2.868605942110518E+01 VY=-8.714135658815295E+00 VZ=-3.778376927573358E+00
2461378.244212963 = A.D. 2026-Dec-03 17:51:40.0000 UT~ 
 X =-4.752177373074762E+07 Y =-1.280864538898512E+08 Z =-5.552281951901369E+07
 VX= 2.868607940354969E+01 VY=-8.714082604209663E+00 VZ=-3.778353906502614E+00
2461378.244328704 = A.D. 2026-Dec-03 17:51:50.0000 UT~ 
 X =-4.752148686985366E+07 Y =-1.280865410304120E+08 Z =-5.552285730243764E+07
 VX= 2.868609938587404E+01 VY=-8.714029549558081E+00 VZ=-3.778330885411472E+00
2461378.244444444 = A.D. 2026-Dec-03 17:52:00.0000 UT~ 
 X =-4.752120000875989E+07 Y =-1.280866281704422E+08 Z =-5.552289508563139E+07
 VX= 2.868611936807824E+01 VY=-8.713976494860548E+00 VZ=-3.778307864299929E+00
2461378.244560185 = A.D. 2026-Dec-03 17:52:10.0000 UT~ 
 X =-4.752091314746630E+07 Y =-1.280867153099419E+08 Z =-5.552293286859493E+07
 VX= 2.868613935016226E+01 VY=-8.713923440117062E+00 VZ=-3.778284843167988E+00
2461378.244675926 = A.D. 2026-Dec-03 17:52:20.0000 UT~ 
 X =-4.752062628597289E+07 Y =-1.280868024489110E+08 Z =-5.552297065132826E+07
 VX= 2.868615933212612E+01 VY=-8.713870385327624E+00 VZ=-3.778261822015646E+00
2461378.244791667 = A.D. 2026-Dec-03 17:52:30.0000 UT~ 
 X =-4.752033942427966E+07 Y =-1.280868895873496E+08 Z =-5.552300843383137E+07
 VX= 2.868617931396982E+01 VY=-8.713817330492235E+00 VZ=-3.778238800842905E+00
2461378.244907408 = A.D. 2026-Dec-03 17:52:40.0000 UT~ 
 X =-4.752005256238662E+07 Y =-1.280869767252576E+08 Z =-5.552304621610427E+07
 VX= 2.868619929569335E+01 VY=-8.713764275610897E+00 VZ=-3.778215779649767E+00
2461378.245023148 = A.D. 2026-Dec-03 17:52:50.0000 UT~ 
 X =-4.751976570029375E+07 Y =-1.280870638626351E+08 Z =-5.552308399814697E+07
 VX= 2.868621927729670E+01 VY=-8.713711220683605E+00 VZ=-3.778192758436230E+00
2461378.245138889 = A.D. 2026-Dec-03 17:53:00.0000 UT~ 
 X =-4.751947883800106E+07 Y =-1.280871509994820E+08 Z =-5.552312177995944E+07
 VX= 2.868623925877990E+01 VY=-8.713658165710365E+00 VZ=-3.778169737202294E+00
2461378.245254630 = A.D. 2026-Dec-03 17:53:10.0000 UT~ 
 X =-4.751919197550857E+07 Y =-1.280872381357984E+08 Z =-5.552315956154171E+07
 VX= 2.868625924014293E+01 VY=-8.713605110691176E+00 VZ=-3.778146715947958E+00
2461378.245370370 = A.D. 2026-Dec-03 17:53:20.0000 UT~ 
 X =-4.751890511281627E+07 Y =-1.280873252715842E+08 Z =-5.552319734289376E+07
 VX= 2.868627922138579E+01 VY=-8.713552055626037E+00 VZ=-3.778123694673226E+00
2461378.245486111 = A.D. 2026-Dec-03 17:53:30.0000 UT~ 
 X =-4.751861824992415E+07 Y =-1.280874124068395E+08 Z =-5.552323512401561E+07
 VX= 2.868629920250848E+01 VY=-8.713499000514947E+00 VZ=-3.778100673378094E+00
2461378.245601852 = A.D. 2026-Dec-03 17:53:40.0000 UT~ 
 X =-4.751833138683221E+07 Y =-1.280874995415642E+08 Z =-5.552327290490723E+07
 VX= 2.868631918351101E+01 VY=-8.713445945357909E+00 VZ=-3.778077652062566E+00
2461378.245717593 = A.D. 2026-Dec-03 17:53:50.0000 UT~ 
 X =-4.751804452354048E+07 Y =-1.280875866757584E+08 Z =-5.552331068556864E+07
 VX= 2.868633916439337E+01 VY=-8.713392890154925E+00 VZ=-3.778054630726639E+00
2461378.245833333 = A.D. 2026-Dec-03 17:54:00.0000 UT~ 
 X =-4.751775766004892E+07 Y =-1.280876738094220E+08 Z =-5.552334846599985E+07
 VX= 2.868635914515556E+01 VY=-8.713339834905989E+00 VZ=-3.778031609370314E+00
2461378.245949074 = A.D. 2026-Dec-03 17:54:10.0000 UT~ 
 X =-4.751747079635758E+07 Y =-1.280877609425551E+08 Z =-5.552338624620083E+07
 VX= 2.868637912579758E+01 VY=-8.713286779611108E+00 VZ=-3.778008587993593E+00
2461378.246064815 = A.D. 2026-Dec-03 17:54:20.0000 UT~ 
 X =-4.751718393246642E+07 Y =-1.280878480751576E+08 Z =-5.552342402617160E+07
 VX= 2.868639910631943E+01 VY=-8.713233724270278E+00 VZ=-3.777985566596473E+00
2461378.246180556 = A.D. 2026-Dec-03 17:54:30.0000 UT~ 
 X =-4.751689706837545E+07 Y =-1.280879352072296E+08 Z =-5.552346180591216E+07
 VX= 2.868641908672113E+01 VY=-8.713180668883499E+00 VZ=-3.777962545178957E+00
2461378.246296296 = A.D. 2026-Dec-03 17:54:40.0000 UT~ 
 X =-4.751661020408468E+07 Y =-1.280880223387710E+08 Z =-5.552349958542250E+07
 VX= 2.868643906700264E+01 VY=-8.713127613450776E+00 VZ=-3.777939523741043E+00
2461378.246412037 = A.D. 2026-Dec-03 17:54:50.0000 UT~ 
 X =-4.751632333959410E+07 Y =-1.280881094697819E+08 Z =-5.552353736470264E+07
 VX= 2.868645904716399E+01 VY=-8.713074557972103E+00 VZ=-3.777916502282733E+00
